CCSDS_OMM_VERS = 2.0
CREATION_DATE  = 
ORIGINATOR     = 

OBJECT_NAME    = TWILIGHT AK
OBJECT_ID      = 2026-004AK
CENTER_NAME    = EARTH
REF_FRAME      = TEME
TIME_SYSTEM    = UTC
MEAN_ELEMENT_THEORY = SGP/SGP4

EPOCH          = 2026-01-27T18:25:24.273120
MEAN_MOTION    = 15.17809900
ECCENTRICITY   = .0008893
INCLINATION    = 97.4500
RA_OF_ASC_NODE = 28.8817
ARG_OF_PERICENTER = 103.7867
MEAN_ANOMALY   = 256.4357

EPHEMERIS_TYPE = 0
CLASSIFICATION_TYPE = U
NORAD_CAT_ID   = 67396
ELEMENT_SET_NO = 999
REV_AT_EPOCH   = 245
BSTAR          = .85731E-3
MEAN_MOTION_DOT = .17313E-3
MEAN_MOTION_DDOT = 0

CCSDS_OMM_VERS = 2.0
CREATION_DATE  = 
ORIGINATOR     = 

OBJECT_NAME    = TWILIGHT AL
OBJECT_ID      = 2026-004AL
CENTER_NAME    = EARTH
REF_FRAME      = TEME
TIME_SYSTEM    = UTC
MEAN_ELEMENT_THEORY = SGP/SGP4

EPOCH          = 2026-01-27T05:48:40.633344
MEAN_MOTION    = 15.17655916
ECCENTRICITY   = .00079
INCLINATION    = 97.4521
RA_OF_ASC_NODE = 28.3651
ARG_OF_PERICENTER = 106.0212
MEAN_ANOMALY   = 254.1893

EPHEMERIS_TYPE = 0
CLASSIFICATION_TYPE = U
NORAD_CAT_ID   = 67397
ELEMENT_SET_NO = 999
REV_AT_EPOCH   = 237
BSTAR          = .86503E-3
MEAN_MOTION_DOT = .1739E-3
MEAN_MOTION_DDOT = 0

CCSDS_OMM_VERS = 2.0
CREATION_DATE  = 
ORIGINATOR     = 

OBJECT_NAME    = TWILIGHT AM
OBJECT_ID      = 2026-004AM
CENTER_NAME    = EARTH
REF_FRAME      = TEME
TIME_SYSTEM    = UTC
MEAN_ELEMENT_THEORY = SGP/SGP4

EPOCH          = 2026-01-27T18:24:41.955264
MEAN_MOTION    = 15.17853162
ECCENTRICITY   = .0008697
INCLINATION    = 97.4558
RA_OF_ASC_NODE = 28.8945
ARG_OF_PERICENTER = 110.9165
MEAN_ANOMALY   = 249.3001

EPHEMERIS_TYPE = 0
CLASSIFICATION_TYPE = U
NORAD_CAT_ID   = 67398
ELEMENT_SET_NO = 999
REV_AT_EPOCH   = 245
BSTAR          = .62515E-3
MEAN_MOTION_DOT = .12614E-3
MEAN_MOTION_DDOT = 0

CCSDS_OMM_VERS = 2.0
CREATION_DATE  = 
ORIGINATOR     = 

OBJECT_NAME    = TWILIGHT AN
OBJECT_ID      = 2026-004AN
CENTER_NAME    = EARTH
REF_FRAME      = TEME
TIME_SYSTEM    = UTC
MEAN_ELEMENT_THEORY = SGP/SGP4

EPOCH          = 2026-01-27T18:22:18.791328
MEAN_MOTION    = 15.17997636
ECCENTRICITY   = .0009394
INCLINATION    = 97.4546
RA_OF_ASC_NODE = 28.8946
ARG_OF_PERICENTER = 110.8608
MEAN_ANOMALY   = 249.3632

EPHEMERIS_TYPE = 0
CLASSIFICATION_TYPE = U
NORAD_CAT_ID   = 67399
ELEMENT_SET_NO = 999
REV_AT_EPOCH   = 245
BSTAR          = .39773E-3
MEAN_MOTION_DOT = .803E-4
MEAN_MOTION_DDOT = 0

CCSDS_OMM_VERS = 2.0
CREATION_DATE  = 
ORIGINATOR     = 

OBJECT_NAME    = CONNECTA IOT-13
OBJECT_ID      = 2026-004AP
CENTER_NAME    = EARTH
REF_FRAME      = TEME
TIME_SYSTEM    = UTC
MEAN_ELEMENT_THEORY = SGP/SGP4

EPOCH          = 2026-01-27T18:17:31.482816
MEAN_MOTION    = 15.18300488
ECCENTRICITY   = .0010867
INCLINATION    = 97.4545
RA_OF_ASC_NODE = 28.8984
ARG_OF_PERICENTER = 111.9167
MEAN_ANOMALY   = 248.3223

EPHEMERIS_TYPE = 0
CLASSIFICATION_TYPE = U
NORAD_CAT_ID   = 67400
ELEMENT_SET_NO = 999
REV_AT_EPOCH   = 245
BSTAR          = .61589E-3
MEAN_MOTION_DOT = .12594E-3
MEAN_MOTION_DDOT = 0

CCSDS_OMM_VERS = 2.0
CREATION_DATE  = 
ORIGINATOR     = 

OBJECT_NAME    = CONNECTA IOT-14
OBJECT_ID      = 2026-004AQ
CENTER_NAME    = EARTH
REF_FRAME      = TEME
TIME_SYSTEM    = UTC
MEAN_ELEMENT_THEORY = SGP/SGP4

EPOCH          = 2026-01-27T19:50:49.476192
MEAN_MOTION    = 15.18409343
ECCENTRICITY   = .0011541
INCLINATION    = 97.4486
RA_OF_ASC_NODE = 28.9525
ARG_OF_PERICENTER = 107.3190
MEAN_ANOMALY   = 252.9307

EPHEMERIS_TYPE = 0
CLASSIFICATION_TYPE = U
NORAD_CAT_ID   = 67401
ELEMENT_SET_NO = 999
REV_AT_EPOCH   = 246
BSTAR          = .65257E-3
MEAN_MOTION_DOT = .13394E-3
MEAN_MOTION_DDOT = 0

CCSDS_OMM_VERS = 2.0
CREATION_DATE  = 
ORIGINATOR     = 

OBJECT_NAME    = CONNECTA IOT-15
OBJECT_ID      = 2026-004AR
CENTER_NAME    = EARTH
REF_FRAME      = TEME
TIME_SYSTEM    = UTC
MEAN_ELEMENT_THEORY = SGP/SGP4

EPOCH          = 2026-01-27T18:40:01.718688
MEAN_MOTION    = 15.16824154
ECCENTRICITY   = .0004991
INCLINATION    = 97.4549
RA_OF_ASC_NODE = 28.8793
ARG_OF_PERICENTER = 90.5098
MEAN_ANOMALY   = 269.6707

EPHEMERIS_TYPE = 0
CLASSIFICATION_TYPE = U
NORAD_CAT_ID   = 67402
ELEMENT_SET_NO = 999
REV_AT_EPOCH   = 244
BSTAR          = .35371E-3
MEAN_MOTION_DOT = .6891E-4
MEAN_MOTION_DDOT = 0

CCSDS_OMM_VERS = 2.0
CREATION_DATE  = 
ORIGINATOR     = 

OBJECT_NAME    = SHIJIAN-29B (SJ-29B)
OBJECT_ID      = 2025-315C
CENTER_NAME    = EARTH
REF_FRAME      = TEME
TIME_SYSTEM    = UTC
MEAN_ELEMENT_THEORY = SGP/SGP4

EPOCH          = 2026-01-27T20:13:47.474976
MEAN_MOTION    = 1.00273559
ECCENTRICITY   = .0001171
INCLINATION    = 3.0414
RA_OF_ASC_NODE = 98.8017
ARG_OF_PERICENTER = 314.3375
MEAN_ANOMALY   = 90.5172

EPHEMERIS_TYPE = 0
CLASSIFICATION_TYPE = U
NORAD_CAT_ID   = 67403
ELEMENT_SET_NO = 999
REV_AT_EPOCH   = 28
BSTAR          = 0
MEAN_MOTION_DOT = -.63E-6
MEAN_MOTION_DDOT = 0

CCSDS_OMM_VERS = 2.0
CREATION_DATE  = 
ORIGINATOR     = 

OBJECT_NAME    = STARLINK-36484
OBJECT_ID      = 2026-005A
CENTER_NAME    = EARTH
REF_FRAME      = TEME
TIME_SYSTEM    = UTC
MEAN_ELEMENT_THEORY = SGP/SGP4

EPOCH          = 2026-01-27T20:00:01.999008
MEAN_MOTION    = 15.71419322
ECCENTRICITY   = .0001358
INCLINATION    = 43.0003
RA_OF_ASC_NODE = 113.6718
ARG_OF_PERICENTER = 275.1089
MEAN_ANOMALY   = 351.7642

EPHEMERIS_TYPE = 0
CLASSIFICATION_TYPE = U
NORAD_CAT_ID   = 67404
ELEMENT_SET_NO = 999
REV_AT_EPOCH   = 356
BSTAR          = -.17091E-1
MEAN_MOTION_DOT = -.1984543E-1
MEAN_MOTION_DDOT = 0

CCSDS_OMM_VERS = 2.0
CREATION_DATE  = 
ORIGINATOR     = 

OBJECT_NAME    = STARLINK-36452
OBJECT_ID      = 2026-005B
CENTER_NAME    = EARTH
REF_FRAME      = TEME
TIME_SYSTEM    = UTC
MEAN_ELEMENT_THEORY = SGP/SGP4

EPOCH          = 2026-01-27T20:00:01.999008
MEAN_MOTION    = 15.71413221
ECCENTRICITY   = .0001377
INCLINATION    = 43.0008
RA_OF_ASC_NODE = 113.6671
ARG_OF_PERICENTER = 275.4569
MEAN_ANOMALY   = 353.3327

EPHEMERIS_TYPE = 0
CLASSIFICATION_TYPE = U
NORAD_CAT_ID   = 67405
ELEMENT_SET_NO = 999
REV_AT_EPOCH   = 356
BSTAR          = -.16991E-1
MEAN_MOTION_DOT = -.1973803E-1
MEAN_MOTION_DDOT = 0

CCSDS_OMM_VERS = 2.0
CREATION_DATE  = 
ORIGINATOR     = 

OBJECT_NAME    = STARLINK-36409
OBJECT_ID      = 2026-005C
CENTER_NAME    = EARTH
REF_FRAME      = TEME
TIME_SYSTEM    = UTC
MEAN_ELEMENT_THEORY = SGP/SGP4

EPOCH          = 2026-01-27T20:00:01.999008
MEAN_MOTION    = 15.71411822
ECCENTRICITY   = .0001486
INCLINATION    = 43.0001
RA_OF_ASC_NODE = 113.6623
ARG_OF_PERICENTER = 275.8843
MEAN_ANOMALY   = 354.8227

EPHEMERIS_TYPE = 0
CLASSIFICATION_TYPE = U
NORAD_CAT_ID   = 67406
ELEMENT_SET_NO = 999
REV_AT_EPOCH   = 361
BSTAR          = -.16964E-1
MEAN_MOTION_DOT = -.1971031E-1
MEAN_MOTION_DDOT = 0

CCSDS_OMM_VERS = 2.0
CREATION_DATE  = 
ORIGINATOR     = 

OBJECT_NAME    = STARLINK-36510
OBJECT_ID      = 2026-005D
CENTER_NAME    = EARTH
REF_FRAME      = TEME
TIME_SYSTEM    = UTC
MEAN_ELEMENT_THEORY = SGP/SGP4

EPOCH          = 2026-01-27T20:00:01.999008
MEAN_MOTION    = 15.71409862
ECCENTRICITY   = .0001544
INCLINATION    = 43.0001
RA_OF_ASC_NODE = 113.6575
ARG_OF_PERICENTER = 272.5619
MEAN_ANOMALY   = 0.0646

EPHEMERIS_TYPE = 0
CLASSIFICATION_TYPE = U
NORAD_CAT_ID   = 67407
ELEMENT_SET_NO = 999
REV_AT_EPOCH   = 361
BSTAR          = -.16944E-1
MEAN_MOTION_DOT = -.1968833E-1
MEAN_MOTION_DDOT = 0

