TWILIGHT AK             
1 67396U 26004AK  26027.76764205  .00017313  00000+0  85731-3 0  9998
2 67396  97.4500  28.8817 0008893 103.7867 256.4357 15.17809900  2455
TWILIGHT AL             
1 67397U 26004AL  26027.24213696  .00017390  00000+0  86503-3 0  9998
2 67397  97.4521  28.3651 0007900 106.0212 254.1893 15.17655916  2375
TWILIGHT AM             
1 67398U 26004AM  26027.76715226  .00012614  00000+0  62515-3 0  9993
2 67398  97.4558  28.8945 0008697 110.9165 249.3001 15.17853162  2451
TWILIGHT AN             
1 67399U 26004AN  26027.76549527  .00008030  00000+0  39773-3 0  9990
2 67399  97.4546  28.8946 0009394 110.8608 249.3632 15.17997636  2451
CONNECTA IOT-13         
1 67400U 26004AP  26027.76216994  .00012594  00000+0  61589-3 0  9992
2 67400  97.4545  28.8984 0010867 111.9167 248.3223 15.18300488  2453
CONNECTA IOT-14         
1 67401U 26004AQ  26027.82696153  .00013394  00000+0  65257-3 0  9994
2 67401  97.4486  28.9525 0011541 107.3190 252.9307 15.18409343  2460
CONNECTA IOT-15         
1 67402U 26004AR  26027.77779767  .00006891  00000+0  35371-3 0  9990
2 67402  97.4549  28.8793 0004991  90.5098 269.6707 15.16824154  2444
SHIJIAN-29B (SJ-29B)    
1 67403U 25315C   26027.84291059 -.00000063  00000+0  00000+0 0  9999
2 67403   3.0414  98.8017 0001171 314.3375  90.5172  1.00273559   289
STARLINK-36484          
1 67404U 26005A   26027.83335647 -.01984543  00000+0 -17091-1 0  9994
2 67404  43.0003 113.6718 0001358 275.1089 351.7642 15.71419322  3566
STARLINK-36452          
1 67405U 26005B   26027.83335647 -.01973803  00000+0 -16991-1 0  9990
2 67405  43.0008 113.6671 0001377 275.4569 353.3327 15.71413221  3567
STARLINK-36409          
1 67406U 26005C   26027.83335647 -.01971031  00000+0 -16964-1 0  9992
2 67406  43.0001 113.6623 0001486 275.8843 354.8227 15.71411822  3614
STARLINK-36510          
1 67407U 26005D   26027.83335647 -.01968833  00000+0 -16944-1 0  9997
2 67407  43.0001 113.6575 0001544 272.5619   0.0646 15.71409862  3617
